ONEWEB-0092             
1 45437U 20020P   26064.94176134 -.00000121  00000+0 -37850-3 0  9991
2 45437  87.8858  41.5914 0001822  72.2003 287.9323 13.11415445289259
ONEWEB-0085             
1 45438U 20020Q   26064.97820936  .00000037  00000+0  68899-4 0  9993
2 45438  87.8858  41.5882 0001847  82.0830 278.0508 13.11417882289149
ONEWEB-0096             
1 45439U 20020R   26064.97990665  .00000095  00000+0  23317-3 0  9990
2 45439  87.8863  41.5760 0001782  83.0666 277.0665 13.11417594289139
ONEWEB-0037             
1 45440U 20020S   26064.88410521 -.00000483  00000+0 -13984-2 0  9991
2 45440  87.8870  41.5710 0001879  80.5797 279.5544 13.11416705289156
ONEWEB-0042             
1 45441U 20020T   26064.89328848 -.00000261  00000+0 -77359-3 0  9994
2 45441  87.8861  41.5910 0001759  82.7577 277.3751 13.11417448289124
ONEWEB-0098             
1 45442U 20020U   26064.88918913 -.00000301  00000+0 -88638-3 0  9999
2 45442  87.8863  41.6028 0001933  85.5747 274.5602 13.11417476289105
ONEWEB-0055             
1 45443U 20020V   26064.94853867 -.00000288  00000+0 -84933-3 0  9991
2 45443  87.8858  41.5913 0001898  84.0684 276.0660 13.11415766289084
ONEWEB-0093             
1 45444U 20020W   26064.92409990  .00000509  00000+0  13989-2 0  9990
2 45444  87.8864  41.5857 0001429  81.3155 278.8134 13.11415239289140
ONEWEB-0029             
1 45445U 20020X   26064.94006364 -.00000029  00000+0 -11684-3 0  9991
2 45445  87.8856  41.5944 0001671  85.1849 274.9470 13.11414099289121
ONEWEB-0068             
1 45446U 20020Y   26064.92382208  .00000519  00000+0  14280-2 0  9990
2 45446  87.8867  41.5882 0001641  85.2019 274.9297 13.11415423289064
ONEWEB-0046             
1 45447U 20020Z   26064.91547915  .00000556  00000+0  15338-2 0  9994
2 45447  87.8867  41.5965 0001734  75.9359 284.1962 13.11417247289072
ONEWEB-0063             
1 45448U 20020AA  26064.94429477 -.00000187  00000+0 -56289-3 0  9993
2 45448  87.8861  41.5887 0001843  75.7587 284.3746 13.11414962289165
ONEWEB-0019             
1 45449U 20020AB  26064.98315643  .00000242  00000+0  64817-3 0  9993
2 45449  87.8854  41.5750 0001960  85.9442 274.1910 13.11417479289010
ONEWEB-0094             
1 45450U 20020AC  26064.92973203 -.00000413  00000+0 -10973-2 0  9996
2 45450  87.9155  26.3434 0001751  88.5465 271.5867 13.17648088292710
ONEWEB-0087             
1 45451U 20020AD  26064.95432575 -.00000546  00000+0 -15777-2 0  9996
2 45451  87.8871  41.5525 0001505  89.0496 271.0804 13.11415018289050
ONEWEB-0082             
1 45452U 20020AE  26064.95107160 -.00000426  00000+0 -12387-2 0  9997
2 45452  87.8865  41.5777 0001640  89.8705 270.2611 13.11415438289147
