[{"OBJECT_NAME":"ONEWEB-0092","OBJECT_ID":"2020-020P","EPOCH":"2026-03-05T22:36:08.179776","MEAN_MOTION":13.11415445,"ECCENTRICITY":0.00018227,"INCLINATION":87.8858,"RA_OF_ASC_NODE":41.5914,"ARG_OF_PERICENTER":72.2003,"MEAN_ANOMALY":287.9323,"EPHEMERIS_TYPE":0,"CLASSIFICATION_TYPE":"U","NORAD_CAT_ID":45437,"ELEMENT_SET_NO":999,"REV_AT_EPOCH":28925,"BSTAR":-0.00037849713,"MEAN_MOTION_DOT":-1.21e-6,"MEAN_MOTION_DDOT":0},{"OBJECT_NAME":"ONEWEB-0085","OBJECT_ID":"2020-020Q","EPOCH":"2026-03-05T23:28:37.288704","MEAN_MOTION":13.11417882,"ECCENTRICITY":0.00018479,"INCLINATION":87.8858,"RA_OF_ASC_NODE":41.5882,"ARG_OF_PERICENTER":82.083,"MEAN_ANOMALY":278.0508,"EPHEMERIS_TYPE":0,"CLASSIFICATION_TYPE":"U","NORAD_CAT_ID":45438,"ELEMENT_SET_NO":999,"REV_AT_EPOCH":28914,"BSTAR":6.8898856e-5,"MEAN_MOTION_DOT":3.7e-7,"MEAN_MOTION_DDOT":0},{"OBJECT_NAME":"ONEWEB-0096","OBJECT_ID":"2020-020R","EPOCH":"2026-03-05T23:31:03.934560","MEAN_MOTION":13.11417594,"ECCENTRICITY":0.00017821,"INCLINATION":87.8863,"RA_OF_ASC_NODE":41.576,"ARG_OF_PERICENTER":83.0666,"MEAN_ANOMALY":277.0665,"EPHEMERIS_TYPE":0,"CLASSIFICATION_TYPE":"U","NORAD_CAT_ID":45439,"ELEMENT_SET_NO":999,"REV_AT_EPOCH":28913,"BSTAR":0.00023316732,"MEAN_MOTION_DOT":9.5e-7,"MEAN_MOTION_DDOT":0},{"OBJECT_NAME":"ONEWEB-0037","OBJECT_ID":"2020-020S","EPOCH":"2026-03-05T21:13:06.690144","MEAN_MOTION":13.11416705,"ECCENTRICITY":0.00018794,"INCLINATION":87.887,"RA_OF_ASC_NODE":41.571,"ARG_OF_PERICENTER":80.5797,"MEAN_ANOMALY":279.5544,"EPHEMERIS_TYPE":0,"CLASSIFICATION_TYPE":"U","NORAD_CAT_ID":45440,"ELEMENT_SET_NO":999,"REV_AT_EPOCH":28915,"BSTAR":-0.0013984189,"MEAN_MOTION_DOT":-4.83e-6,"MEAN_MOTION_DDOT":0},{"OBJECT_NAME":"ONEWEB-0042","OBJECT_ID":"2020-020T","EPOCH":"2026-03-05T21:26:20.124672","MEAN_MOTION":13.11417448,"ECCENTRICITY":0.00017598,"INCLINATION":87.8861,"RA_OF_ASC_NODE":41.591,"ARG_OF_PERICENTER":82.7577,"MEAN_ANOMALY":277.3751,"EPHEMERIS_TYPE":0,"CLASSIFICATION_TYPE":"U","NORAD_CAT_ID":45441,"ELEMENT_SET_NO":999,"REV_AT_EPOCH":28912,"BSTAR":-0.00077359442,"MEAN_MOTION_DOT":-2.61e-6,"MEAN_MOTION_DDOT":0},{"OBJECT_NAME":"ONEWEB-0098","OBJECT_ID":"2020-020U","EPOCH":"2026-03-05T21:20:25.940832","MEAN_MOTION":13.11417476,"ECCENTRICITY":0.00019333,"INCLINATION":87.8863,"RA_OF_ASC_NODE":41.6028,"ARG_OF_PERICENTER":85.5747,"MEAN_ANOMALY":274.5602,"EPHEMERIS_TYPE":0,"CLASSIFICATION_TYPE":"U","NORAD_CAT_ID":45442,"ELEMENT_SET_NO":999,"REV_AT_EPOCH":28910,"BSTAR":-0.00088637898,"MEAN_MOTION_DOT":-3.01e-6,"MEAN_MOTION_DDOT":0},{"OBJECT_NAME":"ONEWEB-0055","OBJECT_ID":"2020-020V","EPOCH":"2026-03-05T22:45:53.741088","MEAN_MOTION":13.11415766,"ECCENTRICITY":0.00018986,"INCLINATION":87.8858,"RA_OF_ASC_NODE":41.5913,"ARG_OF_PERICENTER":84.0684,"MEAN_ANOMALY":276.066,"EPHEMERIS_TYPE":0,"CLASSIFICATION_TYPE":"U","NORAD_CAT_ID":45443,"ELEMENT_SET_NO":999,"REV_AT_EPOCH":28908,"BSTAR":-0.00084932858,"MEAN_MOTION_DOT":-2.88e-6,"MEAN_MOTION_DDOT":0},{"OBJECT_NAME":"ONEWEB-0093","OBJECT_ID":"2020-020W","EPOCH":"2026-03-05T22:10:42.231360","MEAN_MOTION":13.11415239,"ECCENTRICITY":0.00014291,"INCLINATION":87.8864,"RA_OF_ASC_NODE":41.5857,"ARG_OF_PERICENTER":81.3155,"MEAN_ANOMALY":278.8134,"EPHEMERIS_TYPE":0,"CLASSIFICATION_TYPE":"U","NORAD_CAT_ID":45444,"ELEMENT_SET_NO":999,"REV_AT_EPOCH":28914,"BSTAR":0.0013989346,"MEAN_MOTION_DOT":5.09e-6,"MEAN_MOTION_DDOT":0},{"OBJECT_NAME":"ONEWEB-0029","OBJECT_ID":"2020-020X","EPOCH":"2026-03-05T22:33:41.498496","MEAN_MOTION":13.11414099,"ECCENTRICITY":0.00016716,"INCLINATION":87.8856,"RA_OF_ASC_NODE":41.5944,"ARG_OF_PERICENTER":85.1849,"MEAN_ANOMALY":274.947,"EPHEMERIS_TYPE":0,"CLASSIFICATION_TYPE":"U","NORAD_CAT_ID":45445,"ELEMENT_SET_NO":999,"REV_AT_EPOCH":28912,"BSTAR":-0.00011684073,"MEAN_MOTION_DOT":-2.9e-7,"MEAN_MOTION_DDOT":0},{"OBJECT_NAME":"ONEWEB-0068","OBJECT_ID":"2020-020Y","EPOCH":"2026-03-05T22:10:18.227712","MEAN_MOTION":13.11415423,"ECCENTRICITY":0.00016418,"INCLINATION":87.8867,"RA_OF_ASC_NODE":41.5882,"ARG_OF_PERICENTER":85.2019,"MEAN_ANOMALY":274.9297,"EPHEMERIS_TYPE":0,"CLASSIFICATION_TYPE":"U","NORAD_CAT_ID":45446,"ELEMENT_SET_NO":999,"REV_AT_EPOCH":28906,"BSTAR":0.001428009,"MEAN_MOTION_DOT":5.19e-6,"MEAN_MOTION_DDOT":0},{"OBJECT_NAME":"ONEWEB-0046","OBJECT_ID":"2020-020Z","EPOCH":"2026-03-05T21:58:17.398560","MEAN_MOTION":13.11417247,"ECCENTRICITY":0.00017342,"INCLINATION":87.8867,"RA_OF_ASC_NODE":41.5965,"ARG_OF_PERICENTER":75.9359,"MEAN_ANOMALY":284.1962,"EPHEMERIS_TYPE":0,"CLASSIFICATION_TYPE":"U","NORAD_CAT_ID":45447,"ELEMENT_SET_NO":999,"REV_AT_EPOCH":28907,"BSTAR":0.001533809,"MEAN_MOTION_DOT":5.56e-6,"MEAN_MOTION_DDOT":0},{"OBJECT_NAME":"ONEWEB-0063","OBJECT_ID":"2020-020AA","EPOCH":"2026-03-05T22:39:47.068128","MEAN_MOTION":13.11414962,"ECCENTRICITY":0.00018435,"INCLINATION":87.8861,"RA_OF_ASC_NODE":41.5887,"ARG_OF_PERICENTER":75.7587,"MEAN_ANOMALY":284.3746,"EPHEMERIS_TYPE":0,"CLASSIFICATION_TYPE":"U","NORAD_CAT_ID":45448,"ELEMENT_SET_NO":999,"REV_AT_EPOCH":28916,"BSTAR":-0.00056289274,"MEAN_MOTION_DOT":-1.87e-6,"MEAN_MOTION_DDOT":0},{"OBJECT_NAME":"ONEWEB-0019","OBJECT_ID":"2020-020AB","EPOCH":"2026-03-05T23:35:44.715552","MEAN_MOTION":13.11417479,"ECCENTRICITY":0.00019606,"INCLINATION":87.8854,"RA_OF_ASC_NODE":41.575,"ARG_OF_PERICENTER":85.9442,"MEAN_ANOMALY":274.191,"EPHEMERIS_TYPE":0,"CLASSIFICATION_TYPE":"U","NORAD_CAT_ID":45449,"ELEMENT_SET_NO":999,"REV_AT_EPOCH":28901,"BSTAR":0.00064817457,"MEAN_MOTION_DOT":2.42e-6,"MEAN_MOTION_DDOT":0},{"OBJECT_NAME":"ONEWEB-0094","OBJECT_ID":"2020-020AC","EPOCH":"2026-03-05T22:18:48.847392","MEAN_MOTION":13.17648088,"ECCENTRICITY":0.00017516,"INCLINATION":87.9155,"RA_OF_ASC_NODE":26.3434,"ARG_OF_PERICENTER":88.5465,"MEAN_ANOMALY":271.5867,"EPHEMERIS_TYPE":0,"CLASSIFICATION_TYPE":"U","NORAD_CAT_ID":45450,"ELEMENT_SET_NO":999,"REV_AT_EPOCH":29271,"BSTAR":-0.0010972718,"MEAN_MOTION_DOT":-4.13e-6,"MEAN_MOTION_DDOT":0},{"OBJECT_NAME":"ONEWEB-0087","OBJECT_ID":"2020-020AD","EPOCH":"2026-03-05T22:54:13.744800","MEAN_MOTION":13.11415018,"ECCENTRICITY":0.00015055,"INCLINATION":87.8871,"RA_OF_ASC_NODE":41.5525,"ARG_OF_PERICENTER":89.0496,"MEAN_ANOMALY":271.0804,"EPHEMERIS_TYPE":0,"CLASSIFICATION_TYPE":"U","NORAD_CAT_ID":45451,"ELEMENT_SET_NO":999,"REV_AT_EPOCH":28905,"BSTAR":-0.0015776769,"MEAN_MOTION_DOT":-5.46e-6,"MEAN_MOTION_DDOT":0},{"OBJECT_NAME":"ONEWEB-0082","OBJECT_ID":"2020-020AE","EPOCH":"2026-03-05T22:49:32.586240","MEAN_MOTION":13.11415438,"ECCENTRICITY":0.00016407,"INCLINATION":87.8865,"RA_OF_ASC_NODE":41.5777,"ARG_OF_PERICENTER":89.8705,"MEAN_ANOMALY":270.2611,"EPHEMERIS_TYPE":0,"CLASSIFICATION_TYPE":"U","NORAD_CAT_ID":45452,"ELEMENT_SET_NO":999,"REV_AT_EPOCH":28914,"BSTAR":-0.0012387195,"MEAN_MOTION_DOT":-4.26e-6,"MEAN_MOTION_DDOT":0}]
